CCSDS_OMM_VERS,COMMENT,CREATION_DATE,ORIGINATOR,OBJECT_NAME,OBJECT_ID,CENTER_NAME,REF_FRAME,TIME_SYSTEM,MEAN_ELEMENT_THEORY,EPOCH,MEAN_MOTION,ECCENTRICITY,INCLINATION,RA_OF_ASC_NODE,ARG_OF_PERICENTER,MEAN_ANOMALY,EPHEMERIS_TYPE,CLASSIFICATION_TYPE,NORAD_CAT_ID,ELEMENT_SET_NO,REV_AT_EPOCH,BSTAR,MEAN_MOTION_DOT,MEAN_MOTION_DDOT,SEMIMAJOR_AXIS,PERIOD,APOAPSIS,PERIAPSIS,OBJECT_TYPE,RCS_SIZE,COUNTRY_CODE,LAUNCH_DATE,SITE,DECAY_DATE,FILE,GP_ID,TLE_LINE0,TLE_LINE1,TLE_LINE2
2,GENERATED VIA SPACE-TRACK.ORG API,2021-01-22T14:36:11,18 SPCS,STARLINK-1098,2020-001D,EARTH,TEME,UTC,SGP4,2021-01-22T11:17:53.693376,15.05580541,0.0001387,53.0016,111.338,105.6532,254.4609,0,U,44917,999,5766,-7.1997e-05,-1.328e-05,0,6927.861,95.644,550.687,548.765,PAYLOAD,LARGE,US,2020-01-07,AFETR,,2935189,170109556,0 STARLINK-1098,1 44917U 20001D   21022.47076034 -.00001328  00000-0 -71997-4 0  9999,2 44917  53.0016 111.3380 0001387 105.6532 254.4609 15.05580541 57668
2,GENERATED VIA SPACE-TRACK.ORG API,2021-01-22T18:01:58,18 SPCS,STARLINK-1098,2020-001D,EARTH,TEME,UTC,SGP4,2021-01-22T14:29:04.665408,15.05579769,0.0001405,53.0022,110.7419,104.8655,255.2489,0,U,44917,999,5768,-7.8056e-05,-1.416e-05,0,6927.863,95.644,550.701,548.755,PAYLOAD,LARGE,US,2020-01-07,AFETR,,2935306,170131440,0 STARLINK-1098,1 44917U 20001D   21022.60352622 -.00001416  00000-0 -78056-4 0  9995,2 44917  53.0022 110.7419 0001405 104.8655 255.2489 15.05579769 57686
2,GENERATED VIA SPACE-TRACK.ORG API,2021-01-23T02:25:02,18 SPCS,STARLINK-1098,2020-001D,EARTH,TEME,UTC,SGP4,2021-01-22T22:27:01.930464,15.05580136,0.00014,53.0021,109.2518,104.518,255.5964,0,U,44917,999,5773,-7.5605e-05,-1.381e-05,0,6927.862,95.644,550.697,548.757,PAYLOAD,LARGE,US,2020-01-07,AFETR,,2935671,170160194,0 STARLINK-1098,1 44917U 20001D   21022.93543901 -.00001381  00000-0 -75605-4 0  9991,2 44917  53.0021 109.2518 0001400 104.5180 255.5964 15.05580136 57730
2,GENERATED VIA SPACE-TRACK.ORG API,2021-01-23T18:01:02,18 SPCS,STARLINK-1098,2020-001D,EARTH,TEME,UTC,SGP4,2021-01-23T14:22:56.381952,15.05581572,0.0001296,53.0016,106.2712,102.7042,257.409,0,U,44917,999,5783,-6.4643e-05,-1.221e-05,0,6927.858,95.644,550.62,548.825,PAYLOAD,LARGE,US,2020-01-07,AFETR,,2936467,170201046,0 STARLINK-1098,1 44917U 20001D   21023.59926368 -.00001221  00000-0 -64643-4 0  9999,2 44917  53.0016 106.2712 0001296 102.7042 257.4090 15.05581572 57834
2,GENERATED VIA SPACE-TRACK.ORG API,2021-01-23T22:36:10,18 SPCS,STARLINK-1098,2020-001D,EARTH,TEME,UTC,SGP4,2021-01-23T15:58:31.780704,15.0558224,0.0001296,53.0016,105.9731,102.7399,257.3734,0,U,44917,999,5784,-5.718e-05,-1.112e-05,0,6927.856,95.644,550.618,548.823,PAYLOAD,LARGE,US,2020-01-07,AFETR,,2936780,170210231,0 STARLINK-1098,1 44917U 20001D   21023.66564561 -.00001112  00000-0 -57180-4 0  9997,2 44917  53.0016 105.9731 0001296 102.7399 257.3734 15.05582240 57844
2,GENERATED VIA SPACE-TRACK.ORG API,2021-01-24T03:24:38,18 SPCS,STARLINK-1098,2020-001D,EARTH,TEME,UTC,SGP4,2021-01-23T22:20:53.628000,15.05582086,0.0001297,53.0017,104.7811,102.0832,258.0301,0,U,44917,999,5788,-6.2261e-05,-1.186e-05,0,6927.856,95.644,550.62,548.822,PAYLOAD,LARGE,US,2020-01-07,AFETR,,2936845,170230763,0 STARLINK-1098,1 44917U 20001D   21023.93117625 -.00001186  00000-0 -62261-4 0  9999,2 44917  53.0017 104.7811 0001297 102.0832 258.0301 15.05582086 57887
2,GENERATED VIA SPACE-TRACK.ORG API,2021-01-24T19:34:43,18 SPCS,STARLINK-1098,2020-001D,EARTH,TEME,UTC,SGP4,2021-01-24T14:16:48.284256,15.05576573,0.0001229,53.0012,101.8006,100.6561,259.4565,0,U,44917,999,5798,5.0513e-05,4.57e-06,0,6927.873,95.644,550.589,548.886,PAYLOAD,LARGE,US,2020-01-07,AFETR,,2937640,170270779,0 STARLINK-1098,1 44917U 20001D   21024.59500329  .00000457  00000-0  50513-4 0  9994,2 44917  53.0012 101.8006 0001229 100.6561 259.4565 15.05576573 57986
2,GENERATED VIA SPACE-TRACK.ORG API,2021-01-25T02:13:51,18 SPCS,STARLINK-1098,2020-001D,EARTH,TEME,UTC,SGP4,2021-01-24T22:14:45.559680,15.05577645,0.0001218,53.0013,100.3106,100.4031,259.7094,0,U,44917,999,5803,5.5288e-05,5.26e-06,0,6927.87,95.644,550.578,548.891,PAYLOAD,LARGE,US,2020-01-07,AFETR,,2938048,170302942,0 STARLINK-1098,1 44917U 20001D   21024.92691620  .00000526  00000-0  55288-4 0  9997,2 44917  53.0013 100.3106 0001218 100.4031 259.7094 15.05577645 58038
2,GENERATED VIA SPACE-TRACK.ORG API,2021-01-25T06:56:10,18 SPCS,STARLINK-1098,2020-001D,EARTH,TEME,UTC,SGP4,2021-01-24T23:50:21.025824,15.0557783,0.00012,53.001,100.0125,101.3976,258.7147,0,U,44917,999,5804,5.0128e-05,4.51e-06,0,6927.869,95.644,550.565,548.903,PAYLOAD,LARGE,US,2020-01-07,AFETR,,2938322,170311443,0 STARLINK-1098,1 44917U 20001D   21024.99329891  .00000451  00000-0  50128-4 0  9997,2 44917  53.0010 100.0125 0001200 101.3976 258.7147 15.05577830 58047
2,GENERATED VIA SPACE-TRACK.ORG API,2021-01-25T18:55:34,18 SPCS,STARLINK-1098,2020-001D,EARTH,TEME,UTC,SGP4,2021-01-25T14:10:40.034496,15.05581074,0.0001171,53.001,97.3303,101.502,258.61,0,U,44917,999,5813,6.0613e-05,6.04e-06,0,6927.859,95.644,550.535,548.913,PAYLOAD,LARGE,US,2020-01-07,AFETR,,2938806,170341523,0 STARLINK-1098,1 44917U 20001D   21025.59074114  .00000604  00000-0  60613-4 0  9999,2 44917  53.0010  97.3303 0001171 101.5020 258.6100 15.05581074 58135
2,GENERATED VIA SPACE-TRACK.ORG API,2021-01-26T06:36:09,18 SPCS,STARLINK-1098,2020-001D,EARTH,TEME,UTC,SGP4,2021-01-26T04:30:58.902336,15.05584383,0.0001144,53.0009,94.6483,101.2501,258.8616,0,U,44917,999,5822,6.6417e-05,6.89e-06,0,6927.849,95.643,550.506,548.921,PAYLOAD,LARGE,US,2020-01-07,AFETR,,2939466,170376817,0 STARLINK-1098,1 44917U 20001D   21026.18818174  .00000689  00000-0  66417-4 0  9998,2 44917  53.0009  94.6483 0001144 101.2501 258.8616 15.05584383 58223
2,GENERATED VIA SPACE-TRACK.ORG API,2021-01-26T19:13:53,18 SPCS,STARLINK-1098,2020-001D,EARTH,TEME,UTC,SGP4,2021-01-26T10:53:20.594976,15.05586283,0.0001144,53.001,93.4563,100.9295,259.1822,0,U,44917,999,5826,8.4463e-05,9.52e-06,0,6927.843,95.643,550.501,548.916,PAYLOAD,LARGE,US,2020-01-07,AFETR,,2940260,170413215,0 STARLINK-1098,1 44917U 20001D   21026.45371059  .00000952  00000-0  84463-4 0  9998,2 44917  53.0010  93.4563 0001144 100.9295 259.1822 15.05586283 58265
2,GENERATED VIA SPACE-TRACK.ORG API,2021-01-27T14:56:10,18 SPCS,STARLINK-1098,2020-001D,EARTH,TEME,UTC,SGP4,2021-01-27T12:22:47.209152,15.05591607,0.0001091,53.0012,88.6888,97.194,262.9172,0,U,44917,999,5842,8.0104e-05,8.88e-06,0,6927.827,95.643,550.448,548.936,PAYLOAD,LARGE,US,2020-01-07,AFETR,,2941435,170483431,0 STARLINK-1098,1 44917U 20001D   21027.51582418  .00000888  00000-0  80104-4 0  9995,2 44917  53.0012  88.6888 0001091  97.1940 262.9172 15.05591607 58422
2,GENERATED VIA SPACE-TRACK.ORG API,2021-01-27T18:14:09,18 SPCS,STARLINK-1098,2020-001D,EARTH,TEME,UTC,SGP4,2021-01-27T13:58:22.618272,15.05592052,0.0001091,53.0012,88.3908,97.118,262.9932,0,U,44917,999,5843,8.3874e-05,9.43e-06,0,6927.825,95.643,550.446,548.935,PAYLOAD,LARGE,US,2020-01-07,AFETR,,2941569,170505185,0 STARLINK-1098,1 44917U 20001D   21027.58220623  .00000943  00000-0  83874-4 0  9998,2 44917  53.0012  88.3908 0001091  97.1180 262.9932 15.05592052 58438
2,GENERATED VIA SPACE-TRACK.ORG API,2021-01-28T04:24:41,18 SPCS,STARLINK-1098,2020-001D,EARTH,TEME,UTC,SGP4,2021-01-27T20:20:44.242656,15.05593227,0.0001083,53.0012,87.1988,96.6927,263.4184,0,U,44917,999,5847,7.8669e-05,8.68e-06,0,6927.822,95.643,550.437,548.937,PAYLOAD,LARGE,US,2020-01-07,AFETR,,2941958,170534267,0 STARLINK-1098,1 44917U 20001D   21027.84773429  .00000868  00000-0  78669-4 0  9996,2 44917  53.0012  87.1988 0001083  96.6927 263.4184 15.05593227 58471
2,GENERATED VIA SPACE-TRACK.ORG API,2021-01-28T20:49:41,18 SPCS,STARLINK-1098,2020-001D,EARTH,TEME,UTC,SGP4,2021-01-28T12:16:39.499392,15.05581792,0.0001101,53.0013,84.2189,94.7021,265.4093,0,U,44917,999,5857,-4.4166e-05,-9.23e-06,0,6927.857,95.644,550.485,548.959,PAYLOAD,LARGE,US,2020-01-07,AFETR,,2942815,170576875,0 STARLINK-1098,1 44917U 20001D   21028.51156828 -.00000923  00000-0 -44166-4 0  9998,2 44917  53.0013  84.2189 0001101  94.7021 265.4093 15.05581792 58574
2,GENERATED VIA SPACE-TRACK.ORG API,2021-01-28T15:06:10,18 SPCS,STARLINK-1098,2020-001D,EARTH,TEME,UTC,SGP4,2021-01-28T12:16:39.499392,15.05581792,0.0001101,53.0013,84.2189,94.7021,265.4093,0,U,44917,999,5857,-4.4166e-05,-9.23e-06,0,6927.857,95.644,550.485,548.959,PAYLOAD,LARGE,US,2020-01-07,AFETR,,2942707,170553819,0 STARLINK-1098,1 44917U 20001D   21028.51156828 -.00000923  00000-0 -44166-4 0  9998,2 44917  53.0013  84.2189 0001101  94.7021 265.4093 15.05581792 58574
2,GENERATED VIA SPACE-TRACK.ORG API,2021-01-29T18:27:41,18 SPCS,STARLINK-1098,2020-001D,EARTH,TEME,UTC,SGP4,2021-01-29T12:10:31.175328,15.05583397,0.0001062,53.0012,79.7487,92.3332,267.7777,0,U,44917,999,5872,-5.0249e-05,-1.011e-05,0,6927.852,95.643,550.453,548.981,PAYLOAD,LARGE,US,2020-01-07,AFETR,,2943982,170645329,0 STARLINK-1098,1 44917U 20001D   21029.50730527 -.00001011  00000-0 -50249-4 0  9990,2 44917  53.0012  79.7487 0001062  92.3332 267.7777 15.05583397 58722
2,GENERATED VIA SPACE-TRACK.ORG API,2021-01-30T03:06:54,18 SPCS,STARLINK-1098,2020-001D,EARTH,TEME,UTC,SGP4,2021-01-29T20:08:28.408416,15.05583608,0.0001062,53.0012,78.2587,92.7474,267.3635,0,U,44917,999,5877,-4.337e-05,-9.11e-06,0,6927.851,95.643,550.452,548.981,PAYLOAD,LARGE,US,2020-01-07,AFETR,,2944243,170674598,0 STARLINK-1098,1 44917U 20001D   21029.83921769 -.00000911  00000-0 -43370-4 0  9991,2 44917  53.0012  78.2587 0001062  92.7474 267.3635 15.05583608 58777
2,GENERATED VIA SPACE-TRACK.ORG API,2021-01-29T22:56:10,18 SPCS,STARLINK-1098,2020-001D,EARTH,TEME,UTC,SGP4,2021-01-29T20:08:28.408416,15.05583608,0.0001062,53.0012,78.2587,92.7474,267.3635,0,U,44917,999,5877,-4.337e-05,-9.11e-06,0,6927.851,95.643,550.452,548.981,PAYLOAD,LARGE,US,2020-01-07,AFETR,,2944215,170653363,0 STARLINK-1098,1 44917U 20001D   21029.83921769 -.00000911  00000-0 -43370-4 0  9991,2 44917  53.0012  78.2587 0001062  92.7474 267.3635 15.05583608 58777
